[{"OBJECT_NAME":"NUSAT-35 (WILLIAMINA)","OBJECT_ID":"2023-001AR","EPOCH":"2026-03-09T22:28:40.425600","MEAN_MOTION":15.3245616,"ECCENTRICITY":0.00136635,"INCLINATION":97.1993,"RA_OF_ASC_NODE":124.278,"ARG_OF_PERICENTER":97.0313,"MEAN_ANOMALY":263.2484,"EPHEMERIS_TYPE":0,"CLASSIFICATION_TYPE":"U","NORAD_CAT_ID":55048,"ELEMENT_SET_NO":999,"REV_AT_EPOCH":17719,"BSTAR":0.00053479647,"MEAN_MOTION_DOT":0.0001675,"MEAN_MOTION_DDOT":0},{"OBJECT_NAME":"STARLINK-32260","OBJECT_ID":"2024-183P","EPOCH":"2026-03-09T11:26:59.200512","MEAN_MOTION":15.30189376,"ECCENTRICITY":0.000123,"INCLINATION":53.1603,"RA_OF_ASC_NODE":143.154,"ARG_OF_PERICENTER":111.023,"MEAN_ANOMALY":249.0903,"EPHEMERIS_TYPE":0,"CLASSIFICATION_TYPE":"U","NORAD_CAT_ID":61522,"ELEMENT_SET_NO":999,"REV_AT_EPOCH":7962,"BSTAR":2.91165e-7,"MEAN_MOTION_DOT":-3.5e-6,"MEAN_MOTION_DDOT":0}]
